{
    "links": {
        "self": "http://www.neowsapp.com/rest/v1/neo/3762173?api_key=iIulBulltgU6a56xZRHN4H3l9WmuAYTsLGpBGhQ2"
    },
    "id": "3762173",
    "neo_reference_id": "3762173",
    "name": "(2016 UG57)",
    "designation": "2016 UG57",
    "nasa_jpl_url": "http://ssd.jpl.nasa.gov/sbdb.cgi?sstr=3762173",
    "absolute_magnitude_h": 27.7,
    "estimated_diameter": {
        "kilometers": {
            "estimated_diameter_min": 0.0076657557,
            "estimated_diameter_max": 0.0171411509
        },
        "meters": {
            "estimated_diameter_min": 7.6657557353,
            "estimated_diameter_max": 17.1411509231
        },
        "miles": {
            "estimated_diameter_min": 0.0047632783,
            "estimated_diameter_max": 0.0106510141
        },
        "feet": {
            "estimated_diameter_min": 25.1501180466,
            "estimated_diameter_max": 56.2373735944
        }
    },
    "is_potentially_hazardous_asteroid": false,
    "close_approach_data": [
        {
            "close_approach_date": "1914-12-13",
            "close_approach_date_full": "1914-Dec-13 04:46",
            "epoch_date_close_approach": -1737314040000,
            "relative_velocity": {
                "kilometers_per_second": "18.1172278757",
                "kilometers_per_hour": "65222.0203524671",
                "miles_per_hour": "40526.4270351204"
            },
            "miss_distance": {
                "astronomical": "0.3710475371",
                "lunar": "144.3374919319",
                "kilometers": "55507921.218905977",
                "miles": "34491022.8754454026"
            },
            "orbiting_body": "Earth"
        },
        {
            "close_approach_date": "2016-10-31",
            "close_approach_date_full": "2016-Oct-31 12:48",
            "epoch_date_close_approach": 1477918080000,
            "relative_velocity": {
                "kilometers_per_second": "6.629102052",
                "kilometers_per_hour": "23864.7673872939",
                "miles_per_hour": "14828.6383801771"
            },
            "miss_distance": {
                "astronomical": "0.0145407446",
                "lunar": "5.6563496494",
                "kilometers": "2175264.420374002",
                "miles": "1351646.6341331476"
            },
            "orbiting_body": "Earth"
        },
        {
            "close_approach_date": "2104-10-11",
            "close_approach_date_full": "2104-Oct-11 13:57",
            "epoch_date_close_approach": 4253176620000,
            "relative_velocity": {
                "kilometers_per_second": "6.7951839903",
                "kilometers_per_hour": "24462.6623650433",
                "miles_per_hour": "15200.1470678793"
            },
            "miss_distance": {
                "astronomical": "0.0203748418",
                "lunar": "7.9258134602",
                "kilometers": "3048032.934866966",
                "miles": "1893959.8416414908"
            },
            "orbiting_body": "Earth"
        }
    ],
    "orbital_data": {
        "orbit_id": "4",
        "orbit_determination_date": "2017-04-06 08:22:38",
        "first_observation_date": "2016-10-30",
        "last_observation_date": "2016-11-03",
        "data_arc_in_days": 4,
        "observations_used": 51,
        "orbit_uncertainty": "7",
        "minimum_orbit_intersection": ".0125691",
        "jupiter_tisserand_invariant": "3.673",
        "epoch_osculation": "2459000.5",
        "eccentricity": ".4977300575665311",
        "semi_major_axis": "2.004200601475407",
        "inclination": ".6538165262839699",
        "ascending_node_longitude": "216.0020997188927",
        "orbital_period": "1036.358966085063",
        "perihelion_distance": "1.006649720728177",
        "perihelion_argument": "175.6232458116177",
        "aphelion_distance": "3.001751482222638",
        "perihelion_time": "2458725.028329978648",
        "mean_anomaly": "95.69059028100003",
        "mean_motion": ".3473699864439166",
        "equinox": "J2000",
        "orbit_class": {
            "orbit_class_type": "APO",
            "orbit_class_description": "Near-Earth asteroid orbits which cross the Earth’s orbit similar to that of 1862 Apollo",
            "orbit_class_range": "a (semi-major axis) > 1.0 AU; q (perihelion) < 1.017 AU"
        }
    },
    "is_sentry_object": false
}